{
  "norad_id": 56335,
  "name": "STARLINK-5559",
  "history": [
    {
      "epoch": "2026-03-28T22:05:07.894464Z",
      "apogee_km": 551.0569783001702,
      "perigee_km": 548.0046478617269,
      "latitude_deg": 6.037403677740748e-06,
      "longitude_deg": -67.38865066866789,
      "height_km": 552.533109245967,
      "semi_major_axis_km": 6927.667813080948,
      "eccentricity": 0.0002203,
      "inclination_deg": 97.6029,
      "raan_deg": 90.228,
      "arg_perigee_deg": 87.7755,
      "mean_anomaly_deg": 272.3724,
      "mean_motion_rev_day": 15.05643591
    }
  ]
}